{
    "links": {
        "self": "http://www.neowsapp.com/rest/v1/neo/3843124?api_key=iIulBulltgU6a56xZRHN4H3l9WmuAYTsLGpBGhQ2"
    },
    "id": "3843124",
    "neo_reference_id": "3843124",
    "name": "(2019 NW1)",
    "designation": "2019 NW1",
    "nasa_jpl_url": "http://ssd.jpl.nasa.gov/sbdb.cgi?sstr=3843124",
    "absolute_magnitude_h": 24.5,
    "estimated_diameter": {
        "kilometers": {
            "estimated_diameter_min": 0.0334622374,
            "estimated_diameter_max": 0.0748238376
        },
        "meters": {
            "estimated_diameter_min": 33.4622374455,
            "estimated_diameter_max": 74.8238376074
        },
        "miles": {
            "estimated_diameter_min": 0.0207924639,
            "estimated_diameter_max": 0.0464933628
        },
        "feet": {
            "estimated_diameter_min": 109.7842471007,
            "estimated_diameter_max": 245.4850393757
        }
    },
    "is_potentially_hazardous_asteroid": false,
    "close_approach_data": [
        {
            "close_approach_date": "2019-07-26",
            "close_approach_date_full": "2019-Jul-26 15:11",
            "epoch_date_close_approach": 1564153860000,
            "relative_velocity": {
                "kilometers_per_second": "8.1449190247",
                "kilometers_per_hour": "29321.7084889318",
                "miles_per_hour": "18219.3693663588"
            },
            "miss_distance": {
                "astronomical": "0.0919349872",
                "lunar": "35.7627100208",
                "kilometers": "13753278.263597264",
                "miles": "8545890.8347756832"
            },
            "orbiting_body": "Earth"
        }
    ],
    "orbital_data": {
        "orbit_id": "2",
        "orbit_determination_date": "2019-08-05 05:59:17",
        "first_observation_date": "2019-07-03",
        "last_observation_date": "2019-08-04",
        "data_arc_in_days": 32,
        "observations_used": 16,
        "orbit_uncertainty": "9",
        "minimum_orbit_intersection": ".0615523",
        "jupiter_tisserand_invariant": "3.437",
        "epoch_osculation": "2458679.5",
        "eccentricity": ".5269910763275449",
        "semi_major_axis": "2.239549474414172",
        "inclination": "2.938718138085262",
        "ascending_node_longitude": "93.61406388126987",
        "orbital_period": "1224.163477566506",
        "perihelion_distance": "1.05932688640386",
        "perihelion_argument": "232.0200517754307",
        "aphelion_distance": "3.419772062424484",
        "perihelion_time": "2458708.638395157330",
        "mean_anomaly": "351.4310282500085",
        "mean_motion": ".2940783699213424",
        "equinox": "J2000",
        "orbit_class": {
            "orbit_class_type": "AMO",
            "orbit_class_description": "Near-Earth asteroid orbits similar to that of 1221 Amor",
            "orbit_class_range": "1.017 AU < q (perihelion) < 1.3 AU"
        }
    },
    "is_sentry_object": false
}